DUCHIFAT-3              
1 44854U 19089C   20166.23068494  .00000276  00000-0  28753-4 0  9997
2 44854  36.9650 117.3962 0008106  29.1801 330.9416 14.99067247 27814
ORBITAL FACTORY 2 (OF-2)
1 45113U 19071C   20165.83437683  .00001176  00000-0  47481-4 0  9991
2 45113  51.6454  21.0314 0013486  46.7876 313.4230 15.33344881 20572
